NORAD_CAT_ID,OBJECT_NAME,OBJECT_TYPE,EPOCH,MEAN_MOTION,ECCENTRICITY,INCLINATION,RA_OF_ASC_NODE,ARG_OF_PERICENTER,MEAN_ANOMALY,BSTAR,MEAN_MOTION_DOT,MEAN_MOTION_DDOT,TLE_LINE0,TLE_LINE1,TLE_LINE2,SEMIMAJOR_AXIS,PERIOD,APOGEE,PERIGEE,DECAYED
51120.0,STARLINK-3398,PAYLOAD,2024-06-06 12:26:12,15.08834144,0.0001621,53.2175,287.4638,102.6019,257.5155,7.0843e-05,8.39e-06,0.0,0 STARLINK-3398,1 51120U 22005S   24158.51819894  .00000839  00000-0  70843-4 0  9999,2 51120  53.2175 287.4638 0001621 102.6019 257.5155 15.08834144133196,6917.898,95.438,540.885,538.642,0.0
51120.0,STARLINK-3398,PAYLOAD,2024-06-06 15:36:57,15.08844233,0.000137,53.2156,286.8671,92.2861,267.8288,0.00015175,2.128e-05,0.0,0 STARLINK-3398,1 51120U 22005S   24158.65067059  .00002128  00000-0  15175-3 0  9991,2 51120  53.2156 286.8671 0001370  92.2861 267.8288 15.08844233132106,6917.867,95.437,540.68,538.785,0.0
51120.0,STARLINK-3398,PAYLOAD,2024-06-07 09:06:13,15.08830989,0.0001107,53.2173,283.5996,104.3834,255.7281,0.00015905,2.244e-05,0.0,0 STARLINK-3398,1 51120U 22005S   24159.37931942  .00002244  00000-0  15905-3 0  9992,2 51120  53.2173 283.5996 0001107 104.3834 255.7281 15.08830989133329,6917.908,95.438,540.539,539.007,0.0
51120.0,STARLINK-3398,PAYLOAD,2024-06-07 15:27:46,15.08830734,0.0001148,53.2162,282.4066,85.0681,275.0442,0.0001064,1.406e-05,0.0,0 STARLINK-3398,1 51120U 22005S   24159.64428350  .00001406  00000-0  10640-3 0  9996,2 51120  53.2162 282.4066 0001148  85.0681 275.0442 15.08830734132256,6917.909,95.438,540.568,538.98,0.0
51120.0,STARLINK-3398,PAYLOAD,2024-06-07 17:03:09,15.08830697,0.0001238,53.2172,282.1105,90.2466,269.8668,0.00010345,1.359e-05,0.0,0 STARLINK-3398,1 51120U 22005S   24159.71052428  .00001359  00000-0  10345-3 0  9992,2 51120  53.2172 282.1105 0001238  90.2466 269.8668 15.08830697132267,6917.909,95.438,540.63,538.917,0.0
51120.0,STARLINK-3398,PAYLOAD,2024-06-08 01:00:04,15.08849604,6.78e-05,53.2177,280.6235,80.3727,279.7341,-1.0296e-05,-4.52e-06,0.0,0 STARLINK-3398,1 51120U 22005S   24160.04171416 -.00000452  00000-0 -10296-4 0  9990,2 51120  53.2177 280.6235 0000678  80.3727 279.7341 15.08849604133421,6917.851,95.437,540.185,539.247,0.0
51120.0,STARLINK-3398,PAYLOAD,2024-06-08 12:07:46,15.08836185,0.0001443,53.2173,278.5441,86.6972,273.4185,7.9433e-05,9.76e-06,0.0,0 STARLINK-3398,1 51120U 22005S   24160.50540380  .00000976  00000-0  79433-4 0  9998,2 51120  53.2173 278.5441 0001443  86.6972 273.4185 15.08836185132385,6917.892,95.438,540.755,538.759,0.0
51120.0,STARLINK-3398,PAYLOAD,2024-06-09 11:58:33,15.08837223,0.0001519,53.2166,274.0817,108.0706,252.0452,0.00014912,2.086e-05,0.0,0 STARLINK-3398,1 51120U 22005S   24161.49899934  .00002086  00000-0  14912-3 0  9993,2 51120  53.2166 274.0817 0001519 108.0706 252.0452 15.08837223132534,6917.889,95.438,540.805,538.703,0.0
51120.0,STARLINK-3398,PAYLOAD,2024-06-10 00:41:38,15.08838892,0.000128,53.2162,271.703,82.1105,278.0032,8.4977e-05,1.065e-05,0.0,0 STARLINK-3398,1 51120U 22005S   24162.02892199  .00001065  00000-0  84977-4 0  9994,2 51120  53.2162 271.7030 0001280  82.1105 278.0032 15.08838892133728,6917.884,95.438,540.634,538.863,0.0
51120.0,STARLINK-3398,PAYLOAD,2024-06-10 13:24:45,15.08808692,0.0001435,53.2148,269.3201,96.9383,263.1772,0.00039747,6.038e-05,0.0,0 STARLINK-3398,1 51120U 22005S   24162.55885656  .00006038  00000-0  39747-3 0  9991,2 51120  53.2148 269.3201 0001435  96.9383 263.1772 15.08808692133808,6917.976,95.44,540.834,538.848,0.0
51120.0,STARLINK-3398,PAYLOAD,2024-06-10 15:00:07,15.08851857,0.0001363,53.2166,269.0219,96.0705,264.0442,-0.00017052,-3.002e-05,0.0,0 STARLINK-3398,1 51120U 22005S   24162.62508116 -.00003002  00000-0 -17052-3 0  9997,2 51120  53.2166 269.0219 0001363  96.0705 264.0442 15.08851857133819,6917.844,95.437,540.652,538.766,0.0
51120.0,STARLINK-3398,PAYLOAD,2024-06-11 13:15:30,15.0883816,0.0001629,53.2147,264.8612,97.7884,262.3293,0.00012987,1.779e-05,0.0,0 STARLINK-3398,1 51120U 22005S   24163.55243983  .00001779  00000-0  12987-3 0  9997,2 51120  53.2147 264.8612 0001629  97.7884 262.3293 15.08838160132848,6917.886,95.438,540.878,538.624,0.0
51120.0,STARLINK-3398,PAYLOAD,2024-06-12 00:23:12,15.08844376,0.0001229,53.2175,262.7815,94.8927,265.2206,0.00019006,2.739e-05,0.0,0 STARLINK-3398,1 51120U 22005S   24164.01611180  .00002739  00000-0  19006-3 0  9993,2 51120  53.2175 262.7815 0001229  94.8927 265.2206 15.08844376134027,6917.867,95.437,540.582,538.882,0.0
51120.0,STARLINK-3398,PAYLOAD,2024-06-12 13:06:18,15.08833825,0.0001292,53.2179,260.4043,92.9969,267.1171,-8.0101e-05,-1.562e-05,0.0,0 STARLINK-3398,1 51120U 22005S   24164.54605002 -.00001562  00000-0 -80101-4 0  9997,2 51120  53.2179 260.4043 0001292  92.9969 267.1171 15.08833825134102,6917.899,95.438,540.658,538.87,0.0
51120.0,STARLINK-3398,PAYLOAD,2024-06-13 12:57:04,15.0884268,0.0001284,53.2176,255.9461,90.2941,269.8198,0.00013665,1.888e-05,0.0,0 STARLINK-3398,1 51120U 22005S   24165.53963929  .00001888  00000-0  13665-3 0  9991,2 51120  53.2176 255.9461 0001284  90.2941 269.8198 15.08842680134257,6917.872,95.437,540.625,538.849,0.0
51120.0,STARLINK-3398,PAYLOAD,2024-06-13 16:07:50,15.08849322,0.0001297,53.2176,255.35,97.1829,262.931,0.00012228,1.659e-05,0.0,0 STARLINK-3398,1 51120U 22005S   24165.67211519  .00001659  00000-0  12228-3 0  9997,2 51120  53.2176 255.3500 0001297  97.1829 262.9310 15.08849322133169,6917.852,95.437,540.614,538.82,0.0
51120.0,STARLINK-3398,PAYLOAD,2024-06-14 12:47:52,15.08831768,0.0001256,53.2164,251.485,90.0279,270.0857,7.8971e-05,9.69e-06,0.0,0 STARLINK-3398,1 51120U 22005S   24166.53324789  .00000969  00000-0  78971-4 0  9998,2 51120  53.2164 251.4850 0001256  90.0279 270.0857 15.08831768133292,6917.906,95.438,540.639,538.902,0.0
51120.0,STARLINK-3398,PAYLOAD,2024-06-15 12:38:39,15.08842045,0.000121,53.2159,247.0234,81.4411,278.6718,9.9001e-05,1.288e-05,0.0,0 STARLINK-3398,1 51120U 22005S   24167.52684371  .00001288  00000-0  99001-4 0  9996,2 51120  53.2159 247.0234 0001210  81.4411 278.6718 15.08842045134555,6917.874,95.437,540.576,538.902,0.0
51120.0,STARLINK-3398,PAYLOAD,2024-06-15 22:10:57,15.08853551,0.0001261,53.216,245.2392,81.1609,278.9526,0.00035004,5.289e-05,0.0,0 STARLINK-3398,1 51120U 22005S   24167.92427961  .00005289  00000-0  35004-3 0  9997,2 51120  53.2160 245.2392 0001261  81.1609 278.9526 15.08853551133502,6917.839,95.437,540.576,538.832,0.0
51120.0,STARLINK-3398,PAYLOAD,2024-06-16 14:04:49,15.08839925,0.0001275,53.2154,242.2645,76.3984,283.715,0.00014044,1.948e-05,0.0,0 STARLINK-3398,1 51120U 22005S   24168.58668636  .00001948  00000-0  14044-3 0  9995,2 51120  53.2154 242.2645 0001275  76.3984 283.7150 15.08839925133607,6917.881,95.438,540.628,538.864,0.0
51120.0,STARLINK-3398,PAYLOAD,2024-06-16 22:01:45,15.0884555,0.0001252,53.2152,240.7777,80.9467,279.1667,0.00020084,2.91e-05,0.0,0 STARLINK-3398,1 51120U 22005S   24168.91788300  .00002910  00000-0  20084-3 0  9994,2 51120  53.2152 240.7777 0001252  80.9467 279.1667 15.08845550133654,6917.863,95.437,540.595,538.862,0.0
51120.0,STARLINK-3398,PAYLOAD,2024-06-17 21:52:32,15.08845029,0.0001173,53.2155,236.3161,86.6153,273.4973,0.0001112,1.483e-05,0.0,0 STARLINK-3398,1 51120U 22005S   24169.91148507  .00001483  00000-0  11120-3 0  9999,2 51120  53.2155 236.3161 0001173  86.6153 273.4973 15.08845029133807,6917.865,95.437,540.541,538.919,0.0
51120.0,STARLINK-3398,PAYLOAD,2024-06-18 04:14:05,15.08841566,0.0001265,53.2151,235.1271,86.9467,273.167,0.00022734,3.332e-05,0.0,0 STARLINK-3398,1 51120U 22005S   24170.17644816  .00003332  00000-0  22734-3 0  9991,2 51120  53.2151 235.1271 0001265  86.9467 273.1670 15.08841566134955,6917.876,95.437,540.616,538.865,0.0
51120.0,STARLINK-3398,PAYLOAD,2024-06-18 10:35:37,15.08845327,0.0001265,53.2151,233.9375,87.3754,272.7383,0.00028129,4.192e-05,0.0,0 STARLINK-3398,1 51120U 22005S   24170.44140724  .00004192  00000-0  28129-3 0  9999,2 51120  53.2151 233.9375 0001265  87.3754 272.7383 15.08845327133886,6917.864,95.437,540.604,538.854,0.0
51120.0,STARLINK-3398,PAYLOAD,2024-06-18 21:43:19,15.08852503,0.0001241,53.2149,231.8562,87.8838,272.2296,0.0003534,5.343e-05,0.0,0 STARLINK-3398,1 51120U 22005S   24170.90508345  .00005343  00000-0  35340-3 0  9999,2 51120  53.2149 231.8562 0001241  87.8838 272.2296 15.08852503133950,6917.842,95.437,540.566,538.849,0.0
51120.0,STARLINK-3398,PAYLOAD,2024-06-19 10:26:25,15.08834583,0.0001527,53.217,229.4768,96.0568,264.0598,6.1116e-05,6.85e-06,0.0,0 STARLINK-3398,1 51120U 22005S   24171.43501190  .00000685  00000-0  61116-4 0  9994,2 51120  53.2170 229.4768 0001527  96.0568 264.0598 15.08834583135149,6917.897,95.438,540.818,538.706,0.0
51120.0,STARLINK-3398,PAYLOAD,2024-06-19 13:37:11,15.08834362,0.0001597,53.2168,228.8809,103.5774,256.5396,0.00013678,1.889e-05,0.0,0 STARLINK-3398,1 51120U 22005S   24171.56749184  .00001889  00000-0  13678-3 0  9991,2 51120  53.2168 228.8809 0001597 103.5774 256.5396 15.08834362134051,6917.898,95.438,540.867,538.658,0.0
51120.0,STARLINK-3398,PAYLOAD,2024-06-20 13:27:58,15.08841842,0.0001184,53.2165,224.4216,89.881,270.2318,-6.6735e-06,-3.94e-06,0.0,0 STARLINK-3398,1 51120U 22005S   24172.56108931 -.00000394  00000-0 -66735-5 0  9997,2 51120  53.2165 224.4216 0001184  89.8810 270.2318 15.08841842134206,6917.875,95.437,540.559,538.921,0.0
51120.0,STARLINK-3398,PAYLOAD,2024-06-21 10:07:59,15.08836642,0.0001242,53.2159,220.5548,92.7695,267.3439,8.107e-05,1.002e-05,0.0,0 STARLINK-3398,1 51120U 22005S   24173.42221173  .00001002  00000-0  81070-4 0  9990,2 51120  53.2159 220.5548 0001242  92.7695 267.3439 15.08836642134330,6917.891,95.438,540.615,538.896,0.0
51120.0,STARLINK-3398,PAYLOAD,2024-06-22 08:23:23,15.08835427,0.0001242,53.216,216.3928,92.069,268.0444,5.097e-05,5.23e-06,0.0,0 STARLINK-3398,1 51120U 22005S   24174.34957607  .00000523  00000-0  50970-4 0  9992,2 51120  53.2160 216.3928 0001242  92.0690 268.0444 15.08835427135587,6917.894,95.438,540.619,538.9,0.0
